CCSDS_OMM_VERS = 2.0
CREATION_DATE  = 
ORIGINATOR     = 

OBJECT_NAME    = SL-14 R/B
OBJECT_ID      = 1991-042B
CENTER_NAME    = EARTH
REF_FRAME      = TEME
TIME_SYSTEM    = UTC
MEAN_ELEMENT_THEORY = SGP/SGP4

EPOCH          = 2026-01-08T10:56:45.506400
MEAN_MOTION    = 14.81769337
ECCENTRICITY   = .0018587
INCLINATION    = 82.4936
RA_OF_ASC_NODE = 276.6735
ARG_OF_PERICENTER = 79.8404
MEAN_ANOMALY   = 280.4905

EPHEMERIS_TYPE = 0
CLASSIFICATION_TYPE = U
NORAD_CAT_ID   = 21423
ELEMENT_SET_NO = 999
REV_AT_EPOCH   = 84415
BSTAR          = .63604531E-4
MEAN_MOTION_DOT = .527E-5
MEAN_MOTION_DDOT = 0

CCSDS_OMM_VERS = 2.0
CREATION_DATE  = 
ORIGINATOR     = 

OBJECT_NAME    = ERS-1
OBJECT_ID      = 1991-050A
CENTER_NAME    = EARTH
REF_FRAME      = TEME
TIME_SYSTEM    = UTC
MEAN_ELEMENT_THEORY = SGP/SGP4

EPOCH          = 2026-01-08T15:20:01.621824
MEAN_MOTION    = 14.39391882
ECCENTRICITY   = .00323293
INCLINATION    = 98.7897
RA_OF_ASC_NODE = 25.3657
ARG_OF_PERICENTER = 22.2632
MEAN_ANOMALY   = 337.9950

EPHEMERIS_TYPE = 0
CLASSIFICATION_TYPE = U
NORAD_CAT_ID   = 21574
ELEMENT_SET_NO = 999
REV_AT_EPOCH   = 80709
BSTAR          = .16009197E-3
MEAN_MOTION_DOT = .455E-5
MEAN_MOTION_DDOT = 0

CCSDS_OMM_VERS = 2.0
CREATION_DATE  = 
ORIGINATOR     = 

OBJECT_NAME    = ARIANE 40 R/B
OBJECT_ID      = 1991-050F
CENTER_NAME    = EARTH
REF_FRAME      = TEME
TIME_SYSTEM    = UTC
MEAN_ELEMENT_THEORY = SGP/SGP4

EPOCH          = 2026-01-08T13:19:26.344992
MEAN_MOTION    = 14.42840323
ECCENTRICITY   = .0002056
INCLINATION    = 98.2126
RA_OF_ASC_NODE = 63.0132
ARG_OF_PERICENTER = 246.4657
MEAN_ANOMALY   = 113.6318

EPHEMERIS_TYPE = 0
CLASSIFICATION_TYPE = U
NORAD_CAT_ID   = 21610
ELEMENT_SET_NO = 999
REV_AT_EPOCH   = 81032
BSTAR          = .1364554E-3
MEAN_MOTION_DOT = .414E-5
MEAN_MOTION_DDOT = 0

CCSDS_OMM_VERS = 2.0
CREATION_DATE  = 
ORIGINATOR     = 

OBJECT_NAME    = INTERCOSMOS 25
OBJECT_ID      = 1991-086A
CENTER_NAME    = EARTH
REF_FRAME      = TEME
TIME_SYSTEM    = UTC
MEAN_ELEMENT_THEORY = SGP/SGP4

EPOCH          = 2026-01-08T11:13:48.675936
MEAN_MOTION    = 12.11838168
ECCENTRICITY   = .14859373
INCLINATION    = 82.6087
RA_OF_ASC_NODE = 346.4068
ARG_OF_PERICENTER = 246.7460
MEAN_ANOMALY   = 97.0628

EPHEMERIS_TYPE = 0
CLASSIFICATION_TYPE = U
NORAD_CAT_ID   = 21819
ELEMENT_SET_NO = 999
REV_AT_EPOCH   = 48939
BSTAR          = .37718119E-3
MEAN_MOTION_DOT = .1896E-4
MEAN_MOTION_DDOT = 0

CCSDS_OMM_VERS = 2.0
CREATION_DATE  = 
ORIGINATOR     = 

OBJECT_NAME    = SL-8 R/B
OBJECT_ID      = 1992-008B
CENTER_NAME    = EARTH
REF_FRAME      = TEME
TIME_SYSTEM    = UTC
MEAN_ELEMENT_THEORY = SGP/SGP4

EPOCH          = 2026-01-08T09:04:29.798688
MEAN_MOTION    = 13.75965314
ECCENTRICITY   = .00336369
INCLINATION    = 82.9286
RA_OF_ASC_NODE = 312.6341
ARG_OF_PERICENTER = 304.7246
MEAN_ANOMALY   = 173.2792

EPHEMERIS_TYPE = 0
CLASSIFICATION_TYPE = U
NORAD_CAT_ID   = 21876
ELEMENT_SET_NO = 999
REV_AT_EPOCH   = 70112
BSTAR          = .11348599E-3
MEAN_MOTION_DOT = .125E-5
MEAN_MOTION_DDOT = 0

CCSDS_OMM_VERS = 2.0
CREATION_DATE  = 
ORIGINATOR     = 

OBJECT_NAME    = SL-8 R/B
OBJECT_ID      = 1992-020B
CENTER_NAME    = EARTH
REF_FRAME      = TEME
TIME_SYSTEM    = UTC
MEAN_ELEMENT_THEORY = SGP/SGP4

EPOCH          = 2026-01-08T14:38:13.352928
MEAN_MOTION    = 13.75535884
ECCENTRICITY   = .00301942
INCLINATION    = 82.9291
RA_OF_ASC_NODE = 198.3634
ARG_OF_PERICENTER = 104.9746
MEAN_ANOMALY   = 318.5971

EPHEMERIS_TYPE = 0
CLASSIFICATION_TYPE = U
NORAD_CAT_ID   = 21938
ELEMENT_SET_NO = 999
REV_AT_EPOCH   = 69287
BSTAR          = .17064269E-3
MEAN_MOTION_DOT = .18E-5
MEAN_MOTION_DDOT = 0

CCSDS_OMM_VERS = 2.0
CREATION_DATE  = 
ORIGINATOR     = 

OBJECT_NAME    = USA 81
OBJECT_ID      = 1992-023A
CENTER_NAME    = EARTH
REF_FRAME      = TEME
TIME_SYSTEM    = UTC
MEAN_ELEMENT_THEORY = SGP/SGP4

EPOCH          = 2026-01-08T12:15:29.761632
MEAN_MOTION    = 14.32339970
ECCENTRICITY   = .00013561
INCLINATION    = 85.0093
RA_OF_ASC_NODE = 166.1370
ARG_OF_PERICENTER = 115.1230
MEAN_ANOMALY   = 245.0103

EPHEMERIS_TYPE = 0
CLASSIFICATION_TYPE = U
NORAD_CAT_ID   = 21949
ELEMENT_SET_NO = 999
REV_AT_EPOCH   = 8617
BSTAR          = .89038334E-4
MEAN_MOTION_DOT = .26E-5
MEAN_MOTION_DDOT = 0

CCSDS_OMM_VERS = 2.0
CREATION_DATE  = 
ORIGINATOR     = 

OBJECT_NAME    = COSMOS 2219
OBJECT_ID      = 1992-076A
CENTER_NAME    = EARTH
REF_FRAME      = TEME
TIME_SYSTEM    = UTC
MEAN_ELEMENT_THEORY = SGP/SGP4

EPOCH          = 2026-01-08T14:31:51.529728
MEAN_MOTION    = 14.14079970
ECCENTRICITY   = .00203391
INCLINATION    = 71.0611
RA_OF_ASC_NODE = 143.6727
ARG_OF_PERICENTER = 289.8182
MEAN_ANOMALY   = 70.0748

EPHEMERIS_TYPE = 0
CLASSIFICATION_TYPE = U
NORAD_CAT_ID   = 22219
ELEMENT_SET_NO = 999
REV_AT_EPOCH   = 70988
BSTAR          = .12429956E-3
MEAN_MOTION_DOT = .19E-5
MEAN_MOTION_DDOT = 0

CCSDS_OMM_VERS = 2.0
CREATION_DATE  = 
ORIGINATOR     = 

OBJECT_NAME    = SL-16 R/B
OBJECT_ID      = 1992-076B
CENTER_NAME    = EARTH
REF_FRAME      = TEME
TIME_SYSTEM    = UTC
MEAN_ELEMENT_THEORY = SGP/SGP4

EPOCH          = 2026-01-08T13:37:05.057760
MEAN_MOTION    = 14.16846340
ECCENTRICITY   = .00133829
INCLINATION    = 71.0013
RA_OF_ASC_NODE = 315.0192
ARG_OF_PERICENTER = 196.8221
MEAN_ANOMALY   = 336.7539

EPHEMERIS_TYPE = 0
CLASSIFICATION_TYPE = U
NORAD_CAT_ID   = 22220
ELEMENT_SET_NO = 999
REV_AT_EPOCH   = 71331
BSTAR          = .12620816E-3
MEAN_MOTION_DOT = .205E-5
MEAN_MOTION_DDOT = 0

CCSDS_OMM_VERS = 2.0
CREATION_DATE  = 
ORIGINATOR     = 

OBJECT_NAME    = COSMOS 2221
OBJECT_ID      = 1992-080A
CENTER_NAME    = EARTH
REF_FRAME      = TEME
TIME_SYSTEM    = UTC
MEAN_ELEMENT_THEORY = SGP/SGP4

EPOCH          = 2026-01-08T15:25:18.462720
MEAN_MOTION    = 14.95903040
ECCENTRICITY   = .00157215
INCLINATION    = 82.5057
RA_OF_ASC_NODE = 336.5721
ARG_OF_PERICENTER = 39.9877
MEAN_ANOMALY   = 320.2499

EPHEMERIS_TYPE = 0
CLASSIFICATION_TYPE = U
NORAD_CAT_ID   = 22236
ELEMENT_SET_NO = 999
REV_AT_EPOCH   = 77181
BSTAR          = .28020906E-3
MEAN_MOTION_DOT = .3167E-4
MEAN_MOTION_DDOT = 0

CCSDS_OMM_VERS = 2.0
CREATION_DATE  = 
ORIGINATOR     = 

OBJECT_NAME    = SL-16 R/B
OBJECT_ID      = 1992-093B
CENTER_NAME    = EARTH
REF_FRAME      = TEME
TIME_SYSTEM    = UTC
MEAN_ELEMENT_THEORY = SGP/SGP4

EPOCH          = 2026-01-08T14:22:34.710240
MEAN_MOTION    = 14.15434153
ECCENTRICITY   = .00032926
INCLINATION    = 71.0213
RA_OF_ASC_NODE = 130.4141
ARG_OF_PERICENTER = 6.6080
MEAN_ANOMALY   = 353.5086

EPHEMERIS_TYPE = 0
CLASSIFICATION_TYPE = U
NORAD_CAT_ID   = 22285
ELEMENT_SET_NO = 999
REV_AT_EPOCH   = 70465
BSTAR          = .61992428E-4
MEAN_MOTION_DOT = .73E-6
MEAN_MOTION_DDOT = 0

CCSDS_OMM_VERS = 2.0
CREATION_DATE  = 
ORIGINATOR     = 

OBJECT_NAME    = COSMOS 2228
OBJECT_ID      = 1992-094A
CENTER_NAME    = EARTH
REF_FRAME      = TEME
TIME_SYSTEM    = UTC
MEAN_ELEMENT_THEORY = SGP/SGP4

EPOCH          = 2026-01-08T13:32:47.804352
MEAN_MOTION    = 14.96885818
ECCENTRICITY   = .00189624
INCLINATION    = 82.5192
RA_OF_ASC_NODE = 294.8685
ARG_OF_PERICENTER = 139.7403
MEAN_ANOMALY   = 220.5228

EPHEMERIS_TYPE = 0
CLASSIFICATION_TYPE = U
NORAD_CAT_ID   = 22286
ELEMENT_SET_NO = 999
REV_AT_EPOCH   = 76706
BSTAR          = .21419757E-3
MEAN_MOTION_DOT = .2491E-4
MEAN_MOTION_DDOT = 0

