SL-14 R/B               
1 21423U 91042B   26008.45608225  .00000527  00000+0  63605-4 0  9993
2 21423  82.4936 276.6735 0018587  79.8404 280.4905 14.81769337844152
ERS-1                   
1 21574U 91050A   26008.63890766  .00000455  00000+0  16009-3 0  9997
2 21574  98.7897  25.3657 0032329  22.2632 337.9950 14.39391882807091
ARIANE 40 R/B           
1 21610U 91050F   26008.55516603  .00000414  00000+0  13646-3 0  9993
2 21610  98.2126  63.0132 0002056 246.4657 113.6318 14.42840323810320
INTERCOSMOS 25          
1 21819U 91086A   26008.46792449  .00001896  00000+0  37718-3 0  9998
2 21819  82.6087 346.4068 1485937 246.7460  97.0628 12.11838168489395
SL-8 R/B                
1 21876U 92008B   26008.37812267  .00000125  00000+0  11349-3 0  9993
2 21876  82.9286 312.6341 0033636 304.7246 173.2792 13.75965314701124
SL-8 R/B                
1 21938U 92020B   26008.60987677  .00000180  00000+0  17064-3 0  9991
2 21938  82.9291 198.3634 0030194 104.9746 318.5971 13.75535884692873
USA 81                  
1 21949U 92023A   26008.51076113  .00000260  00000+0  89038-4 0  9990
2 21949  85.0093 166.1370 0001356 115.1230 245.0103 14.32339970 86172
COSMOS 2219             
1 22219U 92076A   26008.60545752  .00000190  00000+0  12430-3 0  9992
2 22219  71.0611 143.6727 0020339 289.8182  70.0748 14.14079970709889
SL-16 R/B               
1 22220U 92076B   26008.56741965  .00000205  00000+0  12621-3 0  9992
2 22220  71.0013 315.0192 0013382 196.8221 336.7539 14.16846340713317
COSMOS 2221             
1 22236U 92080A   26008.64257480  .00003167  00000+0  28021-3 0  9998
2 22236  82.5057 336.5721 0015721  39.9877 320.2499 14.95903040771818
SL-16 R/B               
1 22285U 92093B   26008.59901285  .00000073  00000+0  61992-4 0  9997
2 22285  71.0213 130.4141 0003292   6.6080 353.5086 14.15434153704658
COSMOS 2228             
1 22286U 92094A   26008.56444218  .00002491  00000+0  21420-3 0  9991
2 22286  82.5192 294.8685 0018962 139.7403 220.5228 14.96885818767069
